[{"OBJECT_NAME":"IRIDIUM 33 DEB","OBJECT_ID":"1997-051RA","EPOCH":"2026-04-05T08:40:41.769984","MEAN_MOTION":14.69643285,"ECCENTRICITY":0.00097839,"INCLINATION":86.3554,"RA_OF_ASC_NODE":318.3337,"ARG_OF_PERICENTER":308.8746,"MEAN_ANOMALY":51.1596,"EPHEMERIS_TYPE":0,"CLASSIFICATION_TYPE":"U","NORAD_CAT_ID":35628,"ELEMENT_SET_NO":999,"REV_AT_EPOCH":88114,"BSTAR":0.0013811286,"MEAN_MOTION_DOT":8.243e-5,"MEAN_MOTION_DDOT":0},{"OBJECT_NAME":"IRIDIUM 33 DEB","OBJECT_ID":"1997-051RD","EPOCH":"2026-04-04T15:00:11.849760","MEAN_MOTION":14.47698165,"ECCENTRICITY":0.0018825,"INCLINATION":86.3689,"RA_OF_ASC_NODE":332.3815,"ARG_OF_PERICENTER":102.0892,"MEAN_ANOMALY":287.5811,"EPHEMERIS_TYPE":0,"CLASSIFICATION_TYPE":"U","NORAD_CAT_ID":35631,"ELEMENT_SET_NO":999,"REV_AT_EPOCH":88830,"BSTAR":0.00042703,"MEAN_MOTION_DOT":1.599e-5,"MEAN_MOTION_DDOT":0},{"OBJECT_NAME":"IRIDIUM 33 DEB","OBJECT_ID":"1997-051RJ","EPOCH":"2026-04-04T21:44:17.967264","MEAN_MOTION":14.22677167,"ECCENTRICITY":0.01488504,"INCLINATION":86.1027,"RA_OF_ASC_NODE":331.3599,"ARG_OF_PERICENTER":280.3598,"MEAN_ANOMALY":93.4002,"EPHEMERIS_TYPE":0,"CLASSIFICATION_TYPE":"U","NORAD_CAT_ID":35680,"ELEMENT_SET_NO":999,"REV_AT_EPOCH":62309,"BSTAR":0.0025904421,"MEAN_MOTION_DOT":6.511e-5,"MEAN_MOTION_DDOT":0},{"OBJECT_NAME":"IRIDIUM 33 DEB","OBJECT_ID":"1997-051RX","EPOCH":"2026-04-01T22:26:19.645440","MEAN_MOTION":14.72708679,"ECCENTRICITY":0.0020833,"INCLINATION":86.3228,"RA_OF_ASC_NODE":275.5653,"ARG_OF_PERICENTER":172.9651,"MEAN_ANOMALY":187.1863,"EPHEMERIS_TYPE":0,"CLASSIFICATION_TYPE":"U","NORAD_CAT_ID":35744,"ELEMENT_SET_NO":999,"REV_AT_EPOCH":88952,"BSTAR":0.0011959,"MEAN_MOTION_DOT":7.678e-5,"MEAN_MOTION_DDOT":0},{"OBJECT_NAME":"IRIDIUM 33 DEB","OBJECT_ID":"1997-051SF","EPOCH":"2026-04-05T05:09:30.750336","MEAN_MOTION":14.86533022,"ECCENTRICITY":0.0012685,"INCLINATION":86.3304,"RA_OF_ASC_NODE":277.666,"ARG_OF_PERICENTER":117.8289,"MEAN_ANOMALY":242.4223,"EPHEMERIS_TYPE":0,"CLASSIFICATION_TYPE":"U","NORAD_CAT_ID":35797,"ELEMENT_SET_NO":999,"REV_AT_EPOCH":89024,"BSTAR":0.0020483,"MEAN_MOTION_DOT":0.00018208,"MEAN_MOTION_DDOT":0},{"OBJECT_NAME":"IRIDIUM 33 DEB","OBJECT_ID":"1997-051SQ","EPOCH":"2026-03-28T10:00:29.634624","MEAN_MOTION":14.58659928,"ECCENTRICITY":0.00159715,"INCLINATION":86.3462,"RA_OF_ASC_NODE":334.0677,"ARG_OF_PERICENTER":72.6099,"MEAN_ANOMALY":287.6855,"EPHEMERIS_TYPE":0,"CLASSIFICATION_TYPE":"U","NORAD_CAT_ID":35806,"ELEMENT_SET_NO":999,"REV_AT_EPOCH":87864,"BSTAR":0.0010059062,"MEAN_MOTION_DOT":4.716e-5,"MEAN_MOTION_DDOT":0},{"OBJECT_NAME":"IRIDIUM 33 DEB","OBJECT_ID":"1997-051ST","EPOCH":"2026-04-05T06:14:56.938272","MEAN_MOTION":14.78527193,"ECCENTRICITY":0.0010888,"INCLINATION":86.3219,"RA_OF_ASC_NODE":283.5259,"ARG_OF_PERICENTER":204.8821,"MEAN_ANOMALY":155.1875,"EPHEMERIS_TYPE":0,"CLASSIFICATION_TYPE":"U","NORAD_CAT_ID":35809,"ELEMENT_SET_NO":999,"REV_AT_EPOCH":88483,"BSTAR":0.0018354,"MEAN_MOTION_DOT":0.00013454,"MEAN_MOTION_DDOT":0},{"OBJECT_NAME":"IRIDIUM 33 DEB","OBJECT_ID":"1997-051SW","EPOCH":"2026-04-05T04:23:12.847776","MEAN_MOTION":14.43674302,"ECCENTRICITY":0.00182853,"INCLINATION":86.3801,"RA_OF_ASC_NODE":10.4113,"ARG_OF_PERICENTER":152.2935,"MEAN_ANOMALY":207.9244,"EPHEMERIS_TYPE":0,"CLASSIFICATION_TYPE":"U","NORAD_CAT_ID":35846,"ELEMENT_SET_NO":999,"REV_AT_EPOCH":72965,"BSTAR":0.00076738376,"MEAN_MOTION_DOT":2.629e-5,"MEAN_MOTION_DDOT":0},{"OBJECT_NAME":"IRIDIUM 33 DEB","OBJECT_ID":"1997-051SY","EPOCH":"2026-04-05T08:51:11.171520","MEAN_MOTION":14.8190314,"ECCENTRICITY":0.00078226,"INCLINATION":86.3887,"RA_OF_ASC_NODE":324.9055,"ARG_OF_PERICENTER":153.4247,"MEAN_ANOMALY":206.7377,"EPHEMERIS_TYPE":0,"CLASSIFICATION_TYPE":"U","NORAD_CAT_ID":35848,"ELEMENT_SET_NO":999,"REV_AT_EPOCH":68371,"BSTAR":0.0016731849,"MEAN_MOTION_DOT":0.00013283,"MEAN_MOTION_DDOT":0},{"OBJECT_NAME":"IRIDIUM 33 DEB","OBJECT_ID":"1997-051TA","EPOCH":"2026-04-05T07:04:02.569152","MEAN_MOTION":14.81973952,"ECCENTRICITY":0.0009813,"INCLINATION":86.3438,"RA_OF_ASC_NODE":292.4537,"ARG_OF_PERICENTER":153.0158,"MEAN_ANOMALY":207.1576,"EPHEMERIS_TYPE":0,"CLASSIFICATION_TYPE":"U","NORAD_CAT_ID":35850,"ELEMENT_SET_NO":999,"REV_AT_EPOCH":73037,"BSTAR":0.0017754,"MEAN_MOTION_DOT":0.00014123,"MEAN_MOTION_DDOT":0},{"OBJECT_NAME":"IRIDIUM 33 DEB","OBJECT_ID":"1997-051TY","EPOCH":"2026-03-23T20:52:41.182176","MEAN_MOTION":14.83975606,"ECCENTRICITY":0.00097057,"INCLINATION":86.3396,"RA_OF_ASC_NODE":296.6253,"ARG_OF_PERICENTER":195.9754,"MEAN_ANOMALY":164.1165,"EPHEMERIS_TYPE":0,"CLASSIFICATION_TYPE":"U","NORAD_CAT_ID":35915,"ELEMENT_SET_NO":999,"REV_AT_EPOCH":9584,"BSTAR":0.0015383613,"MEAN_MOTION_DOT":0.00012841,"MEAN_MOTION_DDOT":0},{"OBJECT_NAME":"IRIDIUM 33 DEB","OBJECT_ID":"1997-051UB","EPOCH":"2026-04-01T13:20:33.843264","MEAN_MOTION":14.52281649,"ECCENTRICITY":0.00260033,"INCLINATION":86.4051,"RA_OF_ASC_NODE":28.6252,"ARG_OF_PERICENTER":157.4201,"MEAN_ANOMALY":20.4294,"EPHEMERIS_TYPE":0,"CLASSIFICATION_TYPE":"U","NORAD_CAT_ID":35918,"ELEMENT_SET_NO":999,"REV_AT_EPOCH":86800,"BSTAR":0.0010470407,"MEAN_MOTION_DOT":4.293e-5,"MEAN_MOTION_DDOT":0},{"OBJECT_NAME":"IRIDIUM 33 DEB","OBJECT_ID":"1997-051UN","EPOCH":"2026-04-03T17:03:42.252480","MEAN_MOTION":15.1205238,"ECCENTRICITY":0.00129871,"INCLINATION":86.3398,"RA_OF_ASC_NODE":259.2114,"ARG_OF_PERICENTER":332.466,"MEAN_ANOMALY":27.5889,"EPHEMERIS_TYPE":0,"CLASSIFICATION_TYPE":"U","NORAD_CAT_ID":35929,"ELEMENT_SET_NO":999,"REV_AT_EPOCH":89466,"BSTAR":0.0041458423,"MEAN_MOTION_DOT":0.00072023,"MEAN_MOTION_DDOT":0},{"OBJECT_NAME":"IRIDIUM 33 DEB","OBJECT_ID":"1997-051US","EPOCH":"2026-04-02T11:08:29.668992","MEAN_MOTION":14.41749682,"ECCENTRICITY":0.00168832,"INCLINATION":86.345,"RA_OF_ASC_NODE":347.8727,"ARG_OF_PERICENTER":211.8744,"MEAN_ANOMALY":329.2715,"EPHEMERIS_TYPE":0,"CLASSIFICATION_TYPE":"U","NORAD_CAT_ID":36011,"ELEMENT_SET_NO":999,"REV_AT_EPOCH":66135,"BSTAR":0.00054952524,"MEAN_MOTION_DOT":1.815e-5,"MEAN_MOTION_DDOT":0},{"OBJECT_NAME":"IRIDIUM 33 DEB","OBJECT_ID":"1997-051UT","EPOCH":"2026-04-04T21:19:04.747296","MEAN_MOTION":14.20841669,"ECCENTRICITY":0.02152227,"INCLINATION":86.4393,"RA_OF_ASC_NODE":261.8257,"ARG_OF_PERICENTER":260.979,"MEAN_ANOMALY":96.6988,"EPHEMERIS_TYPE":0,"CLASSIFICATION_TYPE":"U","NORAD_CAT_ID":36012,"ELEMENT_SET_NO":999,"REV_AT_EPOCH":67090,"BSTAR":0.0019326415,"MEAN_MOTION_DOT":5.294e-5,"MEAN_MOTION_DDOT":0},{"OBJECT_NAME":"IRIDIUM 33 DEB","OBJECT_ID":"1997-051VK","EPOCH":"2026-03-30T16:41:59.295552","MEAN_MOTION":15.01489736,"ECCENTRICITY":0.00146912,"INCLINATION":86.3177,"RA_OF_ASC_NODE":255.6584,"ARG_OF_PERICENTER":17.8833,"MEAN_ANOMALY":342.2914,"EPHEMERIS_TYPE":0,"CLASSIFICATION_TYPE":"U","NORAD_CAT_ID":36028,"ELEMENT_SET_NO":999,"REV_AT_EPOCH":88741,"BSTAR":0.0029684418,"MEAN_MOTION_DOT":0.00038639,"MEAN_MOTION_DDOT":0}]
